{"type": "FeatureCollection", "features": [ {"type": "Feature", "properties": {"norad_id": 39417, "name": "ZACUBE-1 (TSHEPISOSAT)", "group": "active", "lat": -58.08247744891062, "lon": -55.58351711677012, "alt_km": 590.2092200601946, "timestamp": "2025-12-01T03:58:49.243418+00:00", "meta": {"OBJECT_NAME": "ZACUBE-1 (TSHEPISOSAT)", "OBJECT_ID": "2013-066B", "EPOCH": "2025-11-30T20:14:01.649760", "MEAN_MOTION": 14.98896835, "ECCENTRICITY": 0.0041243, "INCLINATION": 97.8055, "RA_OF_ASC_NODE": 291.3708, "ARG_OF_PERICENTER": 185.4711, "MEAN_ANOMALY": 174.6067, "EPHEMERIS_TYPE": 0, "CLASSIFICATION_TYPE": "U", "NORAD_CAT_ID": 39417, "ELEMENT_SET_NO": 999, "REV_AT_EPOCH": 65099, "BSTAR": 0.0004886, "MEAN_MOTION_DOT": 5.948e-05, "MEAN_MOTION_DDOT": 0, "GROUP": "active"}, "tle": {"line1": "1 39417U 13066B   25334.84307465  .00005948  00000+0  48860-3 0  9998", "line2": "2 39417  97.8055 291.3708 0041243 185.4711 174.6067 14.98896835650992"}}, "geometry": {"type": "Point", "coordinates": [-55.58351711677012, -58.08247744891062]}}, {"type": "Feature", "properties": {"norad_id": 39420, "name": "OPTOS", "group": "active", "lat": -3.0216876670786332, "lon": 25.19633653029268, "alt_km": 682.558063674177, "timestamp": "2025-12-01T03:58:49.243428+00:00", "meta": {"OBJECT_NAME": "OPTOS", "OBJECT_ID": "2013-066E", "EPOCH": "2025-11-30T14:05:06.324000", "MEAN_MOTION": 14.71576363, "ECCENTRICITY": 0.0116759, "INCLINATION": 97.7048, "RA_OF_ASC_NODE": 205.0575, "ARG_OF_PERICENTER": 291.7833, "MEAN_ANOMALY": 67.0984, "EPHEMERIS_TYPE": 0, "CLASSIFICATION_TYPE": "U", "NORAD_CAT_ID": 39420, "ELEMENT_SET_NO": 999, "REV_AT_EPOCH": 64230, "BSTAR": 0.00040505, "MEAN_MOTION_DOT": 2.748e-05, "MEAN_MOTION_DDOT": 0, "GROUP": "active"}, "tle": {"line1": "1 39420U 13066E   25334.58687875  .00002748  00000+0  40505-3 0  9992", "line2": "2 39420  97.7048 205.0575 0116759 291.7833  67.0984 14.71576363642303"}}, "geometry": {"type": "Point", "coordinates": [25.19633653029268, -3.0216876670786332]}}, {"type": "Feature", "properties": {"norad_id": 39422, "name": "STSAT-3", "group": "active", "lat": -21.396205727740334, "lon": 120.78860484838502, "alt_km": 577.7599466064494, "timestamp": "2025-12-01T03:58:49.243438+00:00", "meta": {"OBJECT_NAME": "STSAT-3", "OBJECT_ID": "2013-066G", "EPOCH": "2025-11-30T20:41:11.039712", "MEAN_MOTION": 15.01235085, "ECCENTRICITY": 0.0015409, "INCLINATION": 97.597, "RA_OF_ASC_NODE": 303.489, "ARG_OF_PERICENTER": 353.0795, "MEAN_ANOMALY": 7.0214, "EPHEMERIS_TYPE": 0, "CLASSIFICATION_TYPE": "U", "NORAD_CAT_ID": 39422, "ELEMENT_SET_NO": 999, "REV_AT_EPOCH": 65443, "BSTAR": 0.00034202, "MEAN_MOTION_DOT": 4.344e-05, "MEAN_MOTION_DDOT": 0, "GROUP": "active"}, "tle": {"line1": "1 39422U 13066G   25334.86193333  .00004344  00000+0  34202-3 0  9997", "line2": "2 39422  97.5970 303.4890 0015409 353.0795   7.0214 15.01235085654433"}}, "geometry": {"type": "Point", "coordinates": [120.78860484838502, -21.396205727740334]}}, {"type": "Feature", "properties": {"norad_id": 39423, "name": "WNISAT-1", "group": "active", "lat": -4.907711995784211, "lon": -46.89901263202219, "alt_km": 627.5127148495176, "timestamp": "2025-12-01T03:58:49.243448+00:00", "meta": {"OBJECT_NAME": "WNISAT-1", "OBJECT_ID": "2013-066H", "EPOCH": "2025-11-30T10:40:19.408512", "MEAN_MOTION": 14.57591778, "ECCENTRICITY": 0.0165142, "INCLINATION": 97.6925, "RA_OF_ASC_NODE": 133.0989, "ARG_OF_PERICENTER": 137.6093, "MEAN_ANOMALY": 223.8004, "EPHEMERIS_TYPE": 0, "CLASSIFICATION_TYPE": "U", "NORAD_CAT_ID": 39423, "ELEMENT_SET_NO": 999, "REV_AT_EPOCH": 63777, "BSTAR": 0.00027828681, "MEAN_MOTION_DOT": 1.481e-05, "MEAN_MOTION_DDOT": 0, "GROUP": "active"}, "tle": {"line1": "1 39423U 13066H   25334.44466908  .00001481  00000+0  27829-3 0  9999", "line2": "2 39423  97.6925 133.0989 0165142 137.6093 223.8004 14.57591778637775"}}, "geometry": {"type": "Point", "coordinates": [-46.89901263202219, -4.907711995784211]}}, {"type": "Feature", "properties": {"norad_id": 39425, "name": "APRIZESAT 8", "group": "active", "lat": 47.09043645096133, "lon": -87.70754680303149, "alt_km": 634.0474524619067, "timestamp": "2025-12-01T03:58:49.243458+00:00", "meta": {"OBJECT_NAME": "APRIZESAT 8", "OBJECT_ID": "2013-066K", "EPOCH": "2025-11-30T18:04:31.226016", "MEAN_MOTION": 14.87061198, "ECCENTRICITY": 0.0045402, "INCLINATION": 97.7985, "RA_OF_ASC_NODE": 280.3654, "ARG_OF_PERICENTER": 217.4491, "MEAN_ANOMALY": 142.3559, "EPHEMERIS_TYPE": 0, "CLASSIFICATION_TYPE": "U", "NORAD_CAT_ID": 39425, "ELEMENT_SET_NO": 999, "REV_AT_EPOCH": 65017, "BSTAR": 0.00015711, "MEAN_MOTION_DOT": 1.378e-05, "MEAN_MOTION_DDOT": 0, "GROUP": "active"}, "tle": {"line1": "1 39425U 13066K   25334.75313919  .00001378  00000+0  15711-3 0  9990", "line2": "2 39425  97.7985 280.3654 0045402 217.4491 142.3559 14.87061198650174"}}, "geometry": {"type": "Point", "coordinates": [-87.70754680303149, 47.09043645096133]}}, {"type": "Feature", "properties": {"norad_id": 39427, "name": "TRITON-1", "group": "active", "lat": 77.02249614264012, "lon": -152.11028910450904, "alt_km": 607.554446541104, "timestamp": "2025-12-01T03:58:49.243468+00:00", "meta": {"OBJECT_NAME": "TRITON-1", "OBJECT_ID": "2013-066M", "EPOCH": "2025-11-30T19:30:29.087424", "MEAN_MOTION": 14.8038359, "ECCENTRICITY": 0.0092514, "INCLINATION": 97.8309, "RA_OF_ASC_NODE": 244.2141, "ARG_OF_PERICENTER": 159.4647, "MEAN_ANOMALY": 201.0324, "EPHEMERIS_TYPE": 0, "CLASSIFICATION_TYPE": "U", "NORAD_CAT_ID": 39427, "ELEMENT_SET_NO": 999, "REV_AT_EPOCH": 64472, "BSTAR": 0.00033427, "MEAN_MOTION_DOT": 2.689e-05, "MEAN_MOTION_DDOT": 0, "GROUP": "active"}, "tle": {"line1": "1 39427U 13066M   25334.81283666  .00002689  00000+0  33427-3 0  9994", "line2": "2 39427  97.8309 244.2141 0092514 159.4647 201.0324 14.80383590644724"}}, "geometry": {"type": "Point", "coordinates": [-152.11028910450904, 77.02249614264012]}}, {"type": "Feature", "properties": {"norad_id": 39430, "name": "GOMX-1", "group": "active", "lat": -82.29486847575103, "lon": -92.8306943228008, "alt_km": 660.9040751218936, "timestamp": "2025-12-01T03:58:49.243478+00:00", "meta": {"OBJECT_NAME": "GOMX-1", "OBJECT_ID": "2013-066Q", "EPOCH": "2025-11-30T20:12:07.930080", "MEAN_MOTION": 14.68492314, "ECCENTRICITY": 0.0130652, "INCLINATION": 97.6605, "RA_OF_ASC_NODE": 182.711, "ARG_OF_PERICENTER": 354.8604, "MEAN_ANOMALY": 5.1252, "EPHEMERIS_TYPE": 0, "CLASSIFICATION_TYPE": "U", "NORAD_CAT_ID": 39430, "ELEMENT_SET_NO": 999, "REV_AT_EPOCH": 64079, "BSTAR": 0.00036377, "MEAN_MOTION_DOT": 2.348e-05, "MEAN_MOTION_DDOT": 0, "GROUP": "active"}, "tle": {"line1": "1 39430U 13066Q   25334.84175845  .00002348  00000+0  36377-3 0  9999", "line2": "2 39430  97.6605 182.7110 0130652 354.8604   5.1252 14.68492314640794"}}, "geometry": {"type": "Point", "coordinates": [-92.8306943228008, -82.29486847575103]}}, {"type": "Feature", "properties": {"norad_id": 39439, "name": "FIRST-MOVE", "group": "active", "lat": -28.805596858883085, "lon": 134.41178689705058, "alt_km": 429.8450492152242, "timestamp": "2025-12-01T03:58:49.243488+00:00", "meta": {"OBJECT_NAME": "FIRST-MOVE", "OBJECT_ID": "2013-066Z", "EPOCH": "2025-11-30T11:35:27.765600", "MEAN_MOTION": 15.50080401, "ECCENTRICITY": 0.00210165, "INCLINATION": 97.7513, "RA_OF_ASC_NODE": 317.9731, "ARG_OF_PERICENTER": 88.1367, "MEAN_ANOMALY": 272.2291, "EPHEMERIS_TYPE": 0, "CLASSIFICATION_TYPE": "U", "NORAD_CAT_ID": 39439, "ELEMENT_SET_NO": 999, "REV_AT_EPOCH": 65161, "BSTAR": 0.0019238549, "MEAN_MOTION_DOT": 0.00110325, "MEAN_MOTION_DDOT": 0, "GROUP": "active"}, "tle": {"line1": "1 39439U 13066Z   25334.48296025  .00110325  00000+0  19239-2 0  9994", "line2": "2 39439  97.7513 317.9731 0021016  88.1367 272.2291 15.50080401651614"}}, "geometry": {"type": "Point", "coordinates": [134.41178689705058, -28.805596858883085]}}, {"type": "Feature", "properties": {"norad_id": 39440, "name": "CUBEBUG-2 (LO-74)", "group": "active", "lat": 19.327574564637587, "lon": 101.63470349275367, "alt_km": 632.3528725261476, "timestamp": "2025-12-01T03:58:49.243498+00:00", "meta": {"OBJECT_NAME": "CUBEBUG-2 (LO-74)", "OBJECT_ID": "2013-066AA", "EPOCH": "2025-11-30T19:12:43.735680", "MEAN_MOTION": 14.91760759, "ECCENTRICITY": 0.005906, "INCLINATION": 97.8684, "RA_OF_ASC_NODE": 278.4899, "ARG_OF_PERICENTER": 326.3172, "MEAN_ANOMALY": 33.4299, "EPHEMERIS_TYPE": 0, "CLASSIFICATION_TYPE": "U", "NORAD_CAT_ID": 39440, "ELEMENT_SET_NO": 999, "REV_AT_EPOCH": 64739, "BSTAR": 0.00064994, "MEAN_MOTION_DOT": 6.714e-05, "MEAN_MOTION_DDOT": 0, "GROUP": "active"}, "tle": {"line1": "1 39440U 13066AA  25334.80050620  .00006714  00000+0  64994-3 0  9996", "line2": "2 39440  97.8684 278.4899 0059060 326.3172  33.4299 14.91760759647393"}}, "geometry": {"type": "Point", "coordinates": [101.63470349275367, 19.327574564637587]}}, {"type": "Feature", "properties": {"norad_id": 39441, "name": "NEE-02 KRYSAOR", "group": "active", "lat": -41.96196776626388, "lon": 84.01293584455837, "alt_km": 653.7777396934489, "timestamp": "2025-12-01T03:58:49.243508+00:00", "meta": {"OBJECT_NAME": "NEE-02 KRYSAOR", "OBJECT_ID": "2013-066AB", "EPOCH": "2025-11-30T18:53:48.672096", "MEAN_MOTION": 14.85463266, "ECCENTRICITY": 0.0067808, "INCLINATION": 97.871, "RA_OF_ASC_NODE": 270.7846, "ARG_OF_PERICENTER": 1.4912, "MEAN_ANOMALY": 358.6492, "EPHEMERIS_TYPE": 0, "CLASSIFICATION_TYPE": "U", "NORAD_CAT_ID": 39441, "ELEMENT_SET_NO": 999, "REV_AT_EPOCH": 64673, "BSTAR": 0.00042367, "MEAN_MOTION_DOT": 3.751e-05, "MEAN_MOTION_DDOT": 0, "GROUP": "active"}, "tle": {"line1": "1 39441U 13066AB  25334.78736889  .00003751  00000+0  42367-3 0  9990", "line2": "2 39441  97.8710 270.7846 0067808   1.4912 358.6492 14.85463266646733"}}, "geometry": {"type": "Point", "coordinates": [84.01293584455837, -41.96196776626388]}}]}